CCSDS_OMM_VERS = 2.0
CREATION_DATE  = 
ORIGINATOR     = 

OBJECT_NAME    = STARLINK-35671
OBJECT_ID      = 2025-257N
CENTER_NAME    = EARTH
REF_FRAME      = TEME
TIME_SYSTEM    = UTC
MEAN_ELEMENT_THEORY = SGP/SGP4

EPOCH          = 2025-12-09T02:54:48.330144
MEAN_MOTION    = 15.39651087
ECCENTRICITY   = .00010619
INCLINATION    = 53.1605
RA_OF_ASC_NODE = 281.4947
ARG_OF_PERICENTER = 84.7676
MEAN_ANOMALY   = 275.3450

EPHEMERIS_TYPE = 0
CLASSIFICATION_TYPE = U
NORAD_CAT_ID   = 66392
ELEMENT_SET_NO = 999
REV_AT_EPOCH   = 581
BSTAR          = .13579715E-2
MEAN_MOTION_DOT = .54362E-3
MEAN_MOTION_DDOT = 0

CCSDS_OMM_VERS = 2.0
CREATION_DATE  = 
ORIGINATOR     = 

OBJECT_NAME    = STARLINK-35652
OBJECT_ID      = 2025-257P
CENTER_NAME    = EARTH
REF_FRAME      = TEME
TIME_SYSTEM    = UTC
MEAN_ELEMENT_THEORY = SGP/SGP4

EPOCH          = 2025-12-09T08:00:01.999872
MEAN_MOTION    = 15.39559975
ECCENTRICITY   = .00010542
INCLINATION    = 53.1588
RA_OF_ASC_NODE = 280.3973
ARG_OF_PERICENTER = 68.5728
MEAN_ANOMALY   = 76.7434

EPHEMERIS_TYPE = 0
CLASSIFICATION_TYPE = U
NORAD_CAT_ID   = 66393
ELEMENT_SET_NO = 999
REV_AT_EPOCH   = 594
BSTAR          = .20278923E-2
MEAN_MOTION_DOT = .81424E-3
MEAN_MOTION_DDOT = 0

CCSDS_OMM_VERS = 2.0
CREATION_DATE  = 
ORIGINATOR     = 

OBJECT_NAME    = STARLINK-35672
OBJECT_ID      = 2025-257Q
CENTER_NAME    = EARTH
REF_FRAME      = TEME
TIME_SYSTEM    = UTC
MEAN_ELEMENT_THEORY = SGP/SGP4

EPOCH          = 2025-12-09T02:41:25.904832
MEAN_MOTION    = 15.39631651
ECCENTRICITY   = .00012385
INCLINATION    = 53.1593
RA_OF_ASC_NODE = 281.4337
ARG_OF_PERICENTER = 83.7990
MEAN_ANOMALY   = 276.3156

EPHEMERIS_TYPE = 0
CLASSIFICATION_TYPE = U
NORAD_CAT_ID   = 66394
ELEMENT_SET_NO = 999
REV_AT_EPOCH   = 581
BSTAR          = .28492606E-2
MEAN_MOTION_DOT = .115352E-2
MEAN_MOTION_DDOT = 0

CCSDS_OMM_VERS = 2.0
CREATION_DATE  = 
ORIGINATOR     = 

OBJECT_NAME    = STARLINK-35681
OBJECT_ID      = 2025-257R
CENTER_NAME    = EARTH
REF_FRAME      = TEME
TIME_SYSTEM    = UTC
MEAN_ELEMENT_THEORY = SGP/SGP4

EPOCH          = 2025-12-09T08:00:01.999872
MEAN_MOTION    = 15.39556904
ECCENTRICITY   = .00008163
INCLINATION    = 53.1593
RA_OF_ASC_NODE = 280.3460
ARG_OF_PERICENTER = 80.7496
MEAN_ANOMALY   = 90.3364

EPHEMERIS_TYPE = 0
CLASSIFICATION_TYPE = U
NORAD_CAT_ID   = 66395
ELEMENT_SET_NO = 999
REV_AT_EPOCH   = 578
BSTAR          = .19556111E-2
MEAN_MOTION_DOT = .78469E-3
MEAN_MOTION_DDOT = 0

CCSDS_OMM_VERS = 2.0
CREATION_DATE  = 
ORIGINATOR     = 

OBJECT_NAME    = STARLINK-35669
OBJECT_ID      = 2025-257S
CENTER_NAME    = EARTH
REF_FRAME      = TEME
TIME_SYSTEM    = UTC
MEAN_ELEMENT_THEORY = SGP/SGP4

EPOCH          = 2025-12-09T08:00:01.999872
MEAN_MOTION    = 15.39554834
ECCENTRICITY   = .00009229
INCLINATION    = 53.1594
RA_OF_ASC_NODE = 280.3413
ARG_OF_PERICENTER = 78.0251
MEAN_ANOMALY   = 94.9000

EPHEMERIS_TYPE = 0
CLASSIFICATION_TYPE = U
NORAD_CAT_ID   = 66396
ELEMENT_SET_NO = 999
REV_AT_EPOCH   = 594
BSTAR          = .19711206E-2
MEAN_MOTION_DOT = .79095E-3
MEAN_MOTION_DDOT = 0

CCSDS_OMM_VERS = 2.0
CREATION_DATE  = 
ORIGINATOR     = 

OBJECT_NAME    = STARLINK-35510
OBJECT_ID      = 2025-257T
CENTER_NAME    = EARTH
REF_FRAME      = TEME
TIME_SYSTEM    = UTC
MEAN_ELEMENT_THEORY = SGP/SGP4

EPOCH          = 2025-12-09T08:00:01.999872
MEAN_MOTION    = 15.39563678
ECCENTRICITY   = .00013034
INCLINATION    = 53.1597
RA_OF_ASC_NODE = 280.2942
ARG_OF_PERICENTER = 76.0118
MEAN_ANOMALY   = 120.8081

EPHEMERIS_TYPE = 0
CLASSIFICATION_TYPE = U
NORAD_CAT_ID   = 66397
ELEMENT_SET_NO = 999
REV_AT_EPOCH   = 594
BSTAR          = .1887516E-2
MEAN_MOTION_DOT = .75712E-3
MEAN_MOTION_DDOT = 0

CCSDS_OMM_VERS = 2.0
CREATION_DATE  = 
ORIGINATOR     = 

OBJECT_NAME    = STARLINK-35642
OBJECT_ID      = 2025-257U
CENTER_NAME    = EARTH
REF_FRAME      = TEME
TIME_SYSTEM    = UTC
MEAN_ELEMENT_THEORY = SGP/SGP4

EPOCH          = 2025-12-09T08:00:01.999872
MEAN_MOTION    = 15.39565785
ECCENTRICITY   = .00015156
INCLINATION    = 53.1595
RA_OF_ASC_NODE = 280.2426
ARG_OF_PERICENTER = 70.9329
MEAN_ANOMALY   = 151.6383

EPHEMERIS_TYPE = 0
CLASSIFICATION_TYPE = U
NORAD_CAT_ID   = 66398
ELEMENT_SET_NO = 999
REV_AT_EPOCH   = 595
BSTAR          = .19480379E-2
MEAN_MOTION_DOT = .78184E-3
MEAN_MOTION_DDOT = 0

CCSDS_OMM_VERS = 2.0
CREATION_DATE  = 
ORIGINATOR     = 

OBJECT_NAME    = STARLINK-35657
OBJECT_ID      = 2025-257V
CENTER_NAME    = EARTH
REF_FRAME      = TEME
TIME_SYSTEM    = UTC
MEAN_ELEMENT_THEORY = SGP/SGP4

EPOCH          = 2025-12-09T08:00:01.999872
MEAN_MOTION    = 15.39559673
ECCENTRICITY   = .00010791
INCLINATION    = 53.1596
RA_OF_ASC_NODE = 280.2900
ARG_OF_PERICENTER = 81.2976
MEAN_ANOMALY   = 117.3647

EPHEMERIS_TYPE = 0
CLASSIFICATION_TYPE = U
NORAD_CAT_ID   = 66399
ELEMENT_SET_NO = 999
REV_AT_EPOCH   = 595
BSTAR          = .19384931E-2
MEAN_MOTION_DOT = .77778E-3
MEAN_MOTION_DDOT = 0

CCSDS_OMM_VERS = 2.0
CREATION_DATE  = 
ORIGINATOR     = 

OBJECT_NAME    = STARLINK-35667
OBJECT_ID      = 2025-257W
CENTER_NAME    = EARTH
REF_FRAME      = TEME
TIME_SYSTEM    = UTC
MEAN_ELEMENT_THEORY = SGP/SGP4

EPOCH          = 2025-12-09T08:00:01.999872
MEAN_MOTION    = 15.39561771
ECCENTRICITY   = .00013811
INCLINATION    = 53.1593
RA_OF_ASC_NODE = 280.1904
ARG_OF_PERICENTER = 82.2456
MEAN_ANOMALY   = 166.0853

EPHEMERIS_TYPE = 0
CLASSIFICATION_TYPE = U
NORAD_CAT_ID   = 66400
ELEMENT_SET_NO = 999
REV_AT_EPOCH   = 595
BSTAR          = .1955772E-2
MEAN_MOTION_DOT = .78488E-3
MEAN_MOTION_DDOT = 0

CCSDS_OMM_VERS = 2.0
CREATION_DATE  = 
ORIGINATOR     = 

OBJECT_NAME    = STARLINK-35668
OBJECT_ID      = 2025-257X
CENTER_NAME    = EARTH
REF_FRAME      = TEME
TIME_SYSTEM    = UTC
MEAN_ELEMENT_THEORY = SGP/SGP4

EPOCH          = 2025-12-09T08:00:01.999872
MEAN_MOTION    = 15.39569356
ECCENTRICITY   = .00014727
INCLINATION    = 53.1592
RA_OF_ASC_NODE = 280.1868
ARG_OF_PERICENTER = 90.4461
MEAN_ANOMALY   = 159.7049

EPHEMERIS_TYPE = 0
CLASSIFICATION_TYPE = U
NORAD_CAT_ID   = 66401
ELEMENT_SET_NO = 999
REV_AT_EPOCH   = 595
BSTAR          = .18768457E-2
MEAN_MOTION_DOT = .75292E-3
MEAN_MOTION_DDOT = 0

CCSDS_OMM_VERS = 2.0
CREATION_DATE  = 
ORIGINATOR     = 

OBJECT_NAME    = STARLINK-35644
OBJECT_ID      = 2025-257Y
CENTER_NAME    = EARTH
REF_FRAME      = TEME
TIME_SYSTEM    = UTC
MEAN_ELEMENT_THEORY = SGP/SGP4

EPOCH          = 2025-12-09T08:00:01.999872
MEAN_MOTION    = 15.39555235
ECCENTRICITY   = .00012421
INCLINATION    = 53.1596
RA_OF_ASC_NODE = 280.2378
ARG_OF_PERICENTER = 94.5031
MEAN_ANOMALY   = 129.9212

EPHEMERIS_TYPE = 0
CLASSIFICATION_TYPE = U
NORAD_CAT_ID   = 66402
ELEMENT_SET_NO = 999
REV_AT_EPOCH   = 595
BSTAR          = .20022614E-2
MEAN_MOTION_DOT = .80366E-3
MEAN_MOTION_DDOT = 0

CCSDS_OMM_VERS = 2.0
CREATION_DATE  = 
ORIGINATOR     = 

OBJECT_NAME    = STARLINK-35602
OBJECT_ID      = 2025-257Z
CENTER_NAME    = EARTH
REF_FRAME      = TEME
TIME_SYSTEM    = UTC
MEAN_ELEMENT_THEORY = SGP/SGP4

EPOCH          = 2025-12-09T08:00:01.999872
MEAN_MOTION    = 15.39558811
ECCENTRICITY   = .00011001
INCLINATION    = 53.1587
RA_OF_ASC_NODE = 280.1387
ARG_OF_PERICENTER = 88.6908
MEAN_ANOMALY   = 185.3973

EPHEMERIS_TYPE = 0
CLASSIFICATION_TYPE = U
NORAD_CAT_ID   = 66403
ELEMENT_SET_NO = 999
REV_AT_EPOCH   = 595
BSTAR          = .19050831E-2
MEAN_MOTION_DOT = .76415E-3
MEAN_MOTION_DDOT = 0

