STARLINK-35671          
1 66392U 25257N   25343.12139271  .00054362  00000+0  13580-2 0  9998
2 66392  53.1605 281.4947 0001061  84.7676 275.3450 15.39651087  5814
STARLINK-35652          
1 66393U 25257P   25343.33335648  .00081424  00000+0  20279-2 0  9990
2 66393  53.1588 280.3973 0001054  68.5728  76.7434 15.39559975  5944
STARLINK-35672          
1 66394U 25257Q   25343.11210538  .00115352  00000+0  28493-2 0  9991
2 66394  53.1593 281.4337 0001238  83.7990 276.3156 15.39631651  5818
STARLINK-35681          
1 66395U 25257R   25343.33335648  .00078469  00000+0  19556-2 0  9993
2 66395  53.1593 280.3460 0000816  80.7496  90.3364 15.39556904  5781
STARLINK-35669          
1 66396U 25257S   25343.33335648  .00079095  00000+0  19711-2 0  9993
2 66396  53.1594 280.3413 0000922  78.0251  94.9000 15.39554834  5943
STARLINK-35510          
1 66397U 25257T   25343.33335648  .00075712  00000+0  18875-2 0  9996
2 66397  53.1597 280.2942 0001303  76.0118 120.8081 15.39563678  5941
STARLINK-35642          
1 66398U 25257U   25343.33335648  .00078184  00000+0  19480-2 0  9996
2 66398  53.1595 280.2426 0001515  70.9329 151.6383 15.39565785  5958
STARLINK-35657          
1 66399U 25257V   25343.33335648  .00077778  00000+0  19385-2 0  9999
2 66399  53.1596 280.2900 0001079  81.2976 117.3647 15.39559673  5956
STARLINK-35667          
1 66400U 25257W   25343.33335648  .00078488  00000+0  19558-2 0  9993
2 66400  53.1593 280.1904 0001381  82.2456 166.0853 15.39561771  5951
STARLINK-35668          
1 66401U 25257X   25343.33335648  .00075292  00000+0  18768-2 0  9996
2 66401  53.1592 280.1868 0001472  90.4461 159.7049 15.39569356  5951
STARLINK-35644          
1 66402U 25257Y   25343.33335648  .00080366  00000+0  20023-2 0  9992
2 66402  53.1596 280.2378 0001242  94.5031 129.9212 15.39555235  5958
STARLINK-35602          
1 66403U 25257Z   25343.33335648  .00076415  00000+0  19051-2 0  9992
2 66403  53.1587 280.1387 0001100  88.6908 185.3973 15.39558811  5951
